FENGYUN 1C DEB          
1 38144U 99025EQR 17345.35184494  .00000427  00000-0  51982-3 0  9994
2 38144  99.0034  18.6613 0305560 121.9959 241.1262 13.52728242452563
